{
  "type": "FeatureCollection",
  "name": "DutchBay_ProjectArea",
  "crs": {
    "type": "name",
    "properties": {
      "name": "urn:ogc:def:crs:OGC:1.3:CRS84"
    }
  },
  "features": [
    {
      "type": "Feature",
      "properties": {
        "name": "DutchBay project area (ILLUSTRATIVE PLACEHOLDER)",
        "note": "illustrative placeholder boundary — NOT a surveyed project boundary; replace before any real use",
        "provenance": "Rectangular bounding polygon drawn around the DutchBay/Kalpitiya centroid (lat 8.33, lon 79.76, per wind_resource/config/locations.yaml) purely to exercise analytics.gis.boundary_clip. It has no cadastral, survey, or lease basis and MUST be replaced with the surveyed lease boundary before any bankable or operational use.",
        "crs": "EPSG:4326",
        "units": "decimal degrees (lon, lat)",
        "issue": "#825 (revives falsely-closed #21)",
        "surveyed": false
      },
      "geometry": {
        "type": "Polygon",
        "coordinates": [
          [
            [79.73, 8.30],
            [79.79, 8.30],
            [79.79, 8.36],
            [79.73, 8.36],
            [79.73, 8.30]
          ]
        ]
      }
    }
  ]
}
